GSAT0101 (PRN E11)      
1 37846U 11060A   20316.18491485 -.00000074  00000+0  00000+0 0  9998
2 37846  56.7179  37.2581 0001401 304.7920  55.2229  1.70475139 56274
GSAT0102 (PRN E12)      
1 37847U 11060B   20315.52145200 -.00000072  00000+0  00000+0 0  9995
2 37847  56.7183  37.2758 0003405 289.3628  69.6130  1.70475300 56264
GSAT0103 (PRN E19)      
1 38857U 12055A   20316.22687683  .00000092  00000+0  00000+0 0  9997
2 38857  55.0002 157.7418 0001078 245.3862 114.6928  1.70473733 50319
GSAT0104 (PRN E20)      
1 38858U 12055B   20316.16127223  .00000092  00000+0  00000+0 0  9990
2 38858  55.0012 157.7431 0000214  99.5897 260.5029  1.70473690 50319
GSAT0201 (PRN E18)      
1 40128U 14050A   20314.93181590 -.00000071  00000+0  00000+0 0  9998
2 40128  50.5427 355.5720 1656314 104.1436 274.7936  1.85519222 40379
GSAT0202 (PRN E14)      
1 40129U 14050B   20316.27301173 -.00000073  00000+0  00000+0 0  9991
2 40129  50.5773 354.5602 1653867 105.0022 273.8685  1.85519924 42566
GSAT0203 (PRN E26)      
1 40544U 15017A   20317.13921301 -.00000078  00000+0  00000+0 0  9998
2 40544  56.5118  37.3454 0004754 236.7299 123.2527  1.70475024 34378
GSAT0204 (PRN E22)      
1 40545U 15017B   20316.33361707 -.00000075  00000+0  00000+0 0  9995
2 40545  56.5183  37.3840 0003647 204.5289 155.4814  1.70475157 35028
GSAT0205 (PRN E24)      
1 40889U 15045A   20315.98904156 -.00000014  00000+0  00000+0 0  9991
2 40889  56.0420 278.0649 0004591 345.9967  13.9700  1.70474584 32168
GSAT0206 (PRN E30)      
1 40890U 15045B   20316.20857816 -.00000015  00000+0  00000+0 0  9990
2 40890  56.0409 278.0552 0003455 325.1838  34.7718  1.70474611 32199
GSAT0209 (PRN E09)      
1 41174U 15079A   20315.79578055  .00000091  00000+0  00000+0 0  9994
2 41174  55.0160 157.4528 0002964 342.9127  17.1662  1.70473115 30091
GSAT0208 (PRN E08)      
1 41175U 15079B   20316.01551400  .00000092  00000+0  00000+0 0  9997
2 41175  55.0136 157.4457 0002333 354.9222   5.1649  1.70473071 30515
GSAT0211 (PRN E02)      
1 41549U 16030A   20314.96339510 -.00000006  00000+0  00000+0 0  9994
2 41549  56.1850 277.9609 0005006 306.6493  53.2892  1.70474414 27800
GSAT0210 (PRN E01)      
1 41550U 16030B   20317.01600657 -.00000021  00000+0  00000+0 0  9995
2 41550  56.1832 277.9062 0004620 284.4162  75.5061  1.70474454 27834
GSAT0207 (PRN E07)      
1 41859U 16069A   20316.67516002  .00000093  00000+0  00000+0 0  9998
2 41859  54.6741 157.7543 0002315 324.4854  35.5903  1.70473100 24722
GSAT0212 (PRN E03)      
1 41860U 16069B   20316.52861242  .00000092  00000+0  00000+0 0  9992
2 41860  54.6712 157.7571 0002549   9.6967 350.3991  1.70473066 24815
GSAT0213 (PRN E04)      
1 41861U 16069C   20316.89433563  .00000093  00000+0  00000+0 0  9995
2 41861  54.6740 157.7509 0001153 277.5719  82.5063  1.70473233 24820
GSAT0214 (PRN E05)      
1 41862U 16069D   20316.45482487  .00000092  00000+0  00000+0 0  9996
2 41862  54.6727 157.7584 0000548 320.7785  39.3082  1.70473105 24807
GSAT0215 (PRN E21)      
1 43055U 17079A   20316.94455706 -.00000020  00000+0  00000+0 0  9994
2 43055  56.1579 277.7478 0003928 281.4309  78.4990  1.70473512 18155
GSAT0216 (PRN E25)      
1 43056U 17079B   20316.06404454 -.00000014  00000+0  00000+0 0  9995
2 43056  56.1593 277.7718 0005804 279.2859  80.6274  1.70473678 18152
GSAT0217 (PRN E27)      
1 43057U 17079C   20316.28412299 -.00000016  00000+0  00000+0 0  9998
2 43057  56.1569 277.7664 0005406 288.9783  70.9408  1.70473650 18147
GSAT0218 (PRN E31)      
1 43058U 17079D   20315.91754457 -.00000013  00000+0  00000+0 0  9990
2 43058  56.1577 277.7737 0006188 275.9102  83.9990  1.70473623 18169
GSAT0221 (PRN E15)      
1 43564U 18060A   20316.98998697 -.00000077  00000+0  00000+0 0  9997
2 43564  56.8985  37.0151 0004960 254.6572 105.3168  1.70476095 14336
GSAT0222 (PRN E33)      
1 43565U 18060B   20317.20983391 -.00000078  00000+0  00000+0 0  9990
2 43565  56.9010  37.0087 0004468 260.4597  99.5189  1.70476134 14386
GSAT0219 (PRN E36)      
1 43566U 18060C   20316.25704086 -.00000075  00000+0  00000+0 0  9994
2 43566  56.9008  37.0365 0004314 254.1158 105.8652  1.70476003 14343
GSAT0220 (PRN E13)      
1 43567U 18060D   20317.06350832 -.00000077  00000+0  00000+0 0  9993
2 43567  56.9012  37.0153 0004423 255.7756 104.2041  1.70475736 14343
